{"type": "FeatureCollection", "features": [ {"type": "Feature", "properties": {"norad_id": 66920, "name": "HULIANWANG DIGUI-110", "group": "last-30-days", "lat": -33.33725942970792, "lon": 23.341194401169755, "alt_km": 886.3703215928444, "timestamp": "2025-12-27T13:34:48.008462+00:00", "meta": {"OBJECT_NAME": "HULIANWANG DIGUI-110", "OBJECT_ID": "2025-285F", "EPOCH": "2025-12-27T10:22:39.199296", "MEAN_MOTION": 14.02502395, "ECCENTRICITY": 0.0003889, "INCLINATION": 50.0112, "RA_OF_ASC_NODE": 57.3943, "ARG_OF_PERICENTER": 341.7749, "MEAN_ANOMALY": 18.3015, "EPHEMERIS_TYPE": 0, "CLASSIFICATION_TYPE": "U", "NORAD_CAT_ID": 66920, "ELEMENT_SET_NO": 999, "REV_AT_EPOCH": 297, "BSTAR": 0.00012045, "MEAN_MOTION_DOT": 3.5e-07, "MEAN_MOTION_DDOT": 0}, "tle": {"line1": "1 66920U 25285F   25361.43239814  .00000035  00000+0  12045-3 0  9998", "line2": "2 66920  50.0112  57.3943 0003889 341.7749  18.3015 14.02502395  2975"}}, "geometry": {"type": "Point", "coordinates": [23.341194401169755, -33.33725942970792]}}, {"type": "Feature", "properties": {"norad_id": 66921, "name": "HULIANWANG DIGUI-111", "group": "last-30-days", "lat": -30.312267665180137, "lon": 27.459159135985974, "alt_km": 883.3743326394306, "timestamp": "2025-12-27T13:34:48.008474+00:00", "meta": {"OBJECT_NAME": "HULIANWANG DIGUI-111", "OBJECT_ID": "2025-285G", "EPOCH": "2025-12-27T06:56:13.881984", "MEAN_MOTION": 14.0290349, "ECCENTRICITY": 0.00059695, "INCLINATION": 50.014, "RA_OF_ASC_NODE": 57.9672, "ARG_OF_PERICENTER": 343.3975, "MEAN_ANOMALY": 16.6733, "EPHEMERIS_TYPE": 0, "CLASSIFICATION_TYPE": "U", "NORAD_CAT_ID": 66921, "ELEMENT_SET_NO": 999, "REV_AT_EPOCH": 295, "BSTAR": 1.5876672e-05, "MEAN_MOTION_DOT": -1.26e-06, "MEAN_MOTION_DDOT": 0}, "tle": {"line1": "1 66921U 25285G   25361.28904956 -.00000126  00000+0  15877-4 0  9997", "line2": "2 66921  50.0140  57.9672 0005969 343.3975  16.6733 14.02903490  2959"}}, "geometry": {"type": "Point", "coordinates": [27.459159135985974, -30.312267665180137]}}, {"type": "Feature", "properties": {"norad_id": 66922, "name": "HULIANWANG DIGUI-112", "group": "last-30-days", "lat": -25.94951870465109, "lon": 32.71220006090211, "alt_km": 882.7979728187329, "timestamp": "2025-12-27T13:34:48.008484+00:00", "meta": {"OBJECT_NAME": "HULIANWANG DIGUI-112", "OBJECT_ID": "2025-285H", "EPOCH": "2025-12-27T06:54:27.218592", "MEAN_MOTION": 14.03037616, "ECCENTRICITY": 0.00059341, "INCLINATION": 50.0109, "RA_OF_ASC_NODE": 57.9501, "ARG_OF_PERICENTER": 354.7395, "MEAN_ANOMALY": 5.3446, "EPHEMERIS_TYPE": 0, "CLASSIFICATION_TYPE": "U", "NORAD_CAT_ID": 66922, "ELEMENT_SET_NO": 999, "REV_AT_EPOCH": 295, "BSTAR": 0.00016833256, "MEAN_MOTION_DOT": 1.12e-06, "MEAN_MOTION_DDOT": 0}, "tle": {"line1": "1 66922U 25285H   25361.28781503  .00000112  00000+0  16833-3 0  9995", "line2": "2 66922  50.0109  57.9501 0005934 354.7395   5.3446 14.03037616  2955"}}, "geometry": {"type": "Point", "coordinates": [32.71220006090211, -25.94951870465109]}}, {"type": "Feature", "properties": {"norad_id": 66923, "name": "HULIANWANG DIGUI-113", "group": "last-30-days", "lat": -20.933057804213536, "lon": 38.086329427131105, "alt_km": 882.5609921815903, "timestamp": "2025-12-27T13:34:48.008495+00:00", "meta": {"OBJECT_NAME": "HULIANWANG DIGUI-113", "OBJECT_ID": "2025-285J", "EPOCH": "2025-12-27T06:52:29.179776", "MEAN_MOTION": 14.03157844, "ECCENTRICITY": 0.00044909, "INCLINATION": 50.0113, "RA_OF_ASC_NODE": 57.9495, "ARG_OF_PERICENTER": 347.5284, "MEAN_ANOMALY": 12.5509, "EPHEMERIS_TYPE": 0, "CLASSIFICATION_TYPE": "U", "NORAD_CAT_ID": 66923, "ELEMENT_SET_NO": 999, "REV_AT_EPOCH": 295, "BSTAR": -3.42716e-06, "MEAN_MOTION_DOT": -1.57e-06, "MEAN_MOTION_DDOT": 0}, "tle": {"line1": "1 66923U 25285J   25361.28644884 -.00000157  00000+0 -34272-5 0  9996", "line2": "2 66923  50.0113  57.9495 0004490 347.5284  12.5509 14.03157844  2952"}}, "geometry": {"type": "Point", "coordinates": [38.086329427131105, -20.933057804213536]}}, {"type": "Feature", "properties": {"norad_id": 66924, "name": "CZ-8A R/B", "group": "last-30-days", "lat": 36.481826586916775, "lon": -165.3231366457264, "alt_km": 710.7545738604504, "timestamp": "2025-12-27T13:34:48.008507+00:00", "meta": {"OBJECT_NAME": "CZ-8A R/B", "OBJECT_ID": "2025-285K", "EPOCH": "2025-12-27T04:35:45.336480", "MEAN_MOTION": 14.3050765, "ECCENTRICITY": 0.0119228, "INCLINATION": 50.0086, "RA_OF_ASC_NODE": 54.638, "ARG_OF_PERICENTER": 157.6833, "MEAN_ANOMALY": 202.9332, "EPHEMERIS_TYPE": 0, "CLASSIFICATION_TYPE": "U", "NORAD_CAT_ID": 66924, "ELEMENT_SET_NO": 999, "REV_AT_EPOCH": 299, "BSTAR": 8.3990631e-05, "MEAN_MOTION_DOT": 7.2e-07, "MEAN_MOTION_DDOT": 0}, "tle": {"line1": "1 66924U 25285K   25361.19149695  .00000072  00000+0  83991-4 0  9992", "line2": "2 66924  50.0086  54.6380 0119228 157.6833 202.9332 14.30507650  2992"}}, "geometry": {"type": "Point", "coordinates": [-165.3231366457264, 36.481826586916775]}}, {"type": "Feature", "properties": {"norad_id": 66925, "name": "STARLINK-35945", "group": "last-30-days", "lat": 38.2557334433908, "lon": 120.56167067239971, "alt_km": 403.6169865601605, "timestamp": "2025-12-27T13:34:48.008520+00:00", "meta": {"OBJECT_NAME": "STARLINK-35945", "OBJECT_ID": "2025-286A", "EPOCH": "2025-12-27T06:00:02.000160", "MEAN_MOTION": 15.53984386, "ECCENTRICITY": 0.00015063, "INCLINATION": 53.1594, "RA_OF_ASC_NODE": 338.3211, "ARG_OF_PERICENTER": 74.8869, "MEAN_ANOMALY": 87.3776, "EPHEMERIS_TYPE": 0, "CLASSIFICATION_TYPE": "U", "NORAD_CAT_ID": 66925, "ELEMENT_SET_NO": 999, "REV_AT_EPOCH": 432, "BSTAR": -0.034465377, "MEAN_MOTION_DOT": -0.02024862, "MEAN_MOTION_DDOT": 0}, "tle": {"line1": "1 66925U 25286A   25361.25002315 -.02024862  00000+0 -34465-1 0  9994", "line2": "2 66925  53.1594 338.3211 0001506  74.8869  87.3776 15.53984386  4321"}}, "geometry": {"type": "Point", "coordinates": [120.56167067239971, 38.2557334433908]}}, {"type": "Feature", "properties": {"norad_id": 66926, "name": "STARLINK-35942", "group": "last-30-days", "lat": 52.179127160238906, "lon": 81.88595576647882, "alt_km": 406.88113253076517, "timestamp": "2025-12-27T13:34:48.008531+00:00", "meta": {"OBJECT_NAME": "STARLINK-35942", "OBJECT_ID": "2025-286B", "EPOCH": "2025-12-27T06:00:02.000160", "MEAN_MOTION": 15.51940354, "ECCENTRICITY": 0.00012545, "INCLINATION": 53.1597, "RA_OF_ASC_NODE": 338.3773, "ARG_OF_PERICENTER": 78.1275, "MEAN_ANOMALY": 56.275, "EPHEMERIS_TYPE": 0, "CLASSIFICATION_TYPE": "U", "NORAD_CAT_ID": 66926, "ELEMENT_SET_NO": 999, "REV_AT_EPOCH": 432, "BSTAR": -0.032778599, "MEAN_MOTION_DOT": -0.01779805, "MEAN_MOTION_DDOT": 0}, "tle": {"line1": "1 66926U 25286B   25361.25002315 -.01779805  00000+0 -32779-1 0  9994", "line2": "2 66926  53.1597 338.3773 0001254  78.1275  56.2750 15.51940354  4328"}}, "geometry": {"type": "Point", "coordinates": [81.88595576647882, 52.179127160238906]}}, {"type": "Feature", "properties": {"norad_id": 66927, "name": "STARLINK-35943", "group": "last-30-days", "lat": 51.74168774809725, "lon": 84.91579407354929, "alt_km": 406.90023239027505, "timestamp": "2025-12-27T13:34:48.008541+00:00", "meta": {"OBJECT_NAME": "STARLINK-35943", "OBJECT_ID": "2025-286C", "EPOCH": "2025-12-27T06:00:02.000160", "MEAN_MOTION": 15.51939591, "ECCENTRICITY": 0.00013069, "INCLINATION": 53.1597, "RA_OF_ASC_NODE": 338.3729, "ARG_OF_PERICENTER": 80.5566, "MEAN_ANOMALY": 55.7622, "EPHEMERIS_TYPE": 0, "CLASSIFICATION_TYPE": "U", "NORAD_CAT_ID": 66927, "ELEMENT_SET_NO": 999, "REV_AT_EPOCH": 432, "BSTAR": -0.032713782, "MEAN_MOTION_DOT": -0.0177666, "MEAN_MOTION_DDOT": 0}, "tle": {"line1": "1 66927U 25286C   25361.25002315 -.01776660  00000+0 -32714-1 0  9990", "line2": "2 66927  53.1597 338.3729 0001306  80.5566  55.7622 15.51939591  4321"}}, "geometry": {"type": "Point", "coordinates": [84.91579407354929, 51.74168774809725]}}, {"type": "Feature", "properties": {"norad_id": 66928, "name": "STARLINK-35944", "group": "last-30-days", "lat": 52.53734430614421, "lon": 78.79763444826932, "alt_km": 406.72360841290174, "timestamp": "2025-12-27T13:34:48.008552+00:00", "meta": {"OBJECT_NAME": "STARLINK-35944", "OBJECT_ID": "2025-286D", "EPOCH": "2025-12-27T06:00:02.000160", "MEAN_MOTION": 15.5193772, "ECCENTRICITY": 0.0001375, "INCLINATION": 53.1595, "RA_OF_ASC_NODE": 338.3806, "ARG_OF_PERICENTER": 78.4051, "MEAN_ANOMALY": 54.0765, "EPHEMERIS_TYPE": 0, "CLASSIFICATION_TYPE": "U", "NORAD_CAT_ID": 66928, "ELEMENT_SET_NO": 999, "REV_AT_EPOCH": 432, "BSTAR": -0.032528452, "MEAN_MOTION_DOT": -0.01767634, "MEAN_MOTION_DDOT": 0}, "tle": {"line1": "1 66928U 25286D   25361.25002315 -.01767634  00000+0 -32528-1 0  9995", "line2": "2 66928  53.1595 338.3806 0001375  78.4051  54.0765 15.51937720  4329"}}, "geometry": {"type": "Point", "coordinates": [78.79763444826932, 52.53734430614421]}}, {"type": "Feature", "properties": {"norad_id": 66929, "name": "STARLINK-36169", "group": "last-30-days", "lat": 51.22796943452305, "lon": 87.87931614338059, "alt_km": 406.9722231001315, "timestamp": "2025-12-27T13:34:48.008563+00:00", "meta": {"OBJECT_NAME": "STARLINK-36169", "OBJECT_ID": "2025-286E", "EPOCH": "2025-12-27T06:00:02.000160", "MEAN_MOTION": 15.51944874, "ECCENTRICITY": 0.00013333, "INCLINATION": 53.1593, "RA_OF_ASC_NODE": 338.369, "ARG_OF_PERICENTER": 82.1807, "MEAN_ANOMALY": 56.053, "EPHEMERIS_TYPE": 0, "CLASSIFICATION_TYPE": "U", "NORAD_CAT_ID": 66929, "ELEMENT_SET_NO": 999, "REV_AT_EPOCH": 432, "BSTAR": -0.033009048, "MEAN_MOTION_DOT": -0.01791223, "MEAN_MOTION_DDOT": 0}, "tle": {"line1": "1 66929U 25286E   25361.25002315 -.01791223  00000+0 -33009-1 0  9992", "line2": "2 66929  53.1593 338.3690 0001333  82.1807  56.0530 15.51944874  4324"}}, "geometry": {"type": "Point", "coordinates": [87.87931614338059, 51.22796943452305]}}]}